H1 CPF 01  gfz 2021 10 26 00  7991 tandemx   
H2 1003001  6202 36605    2021 10 26 00 59 42 2021 10 31 00 00 42   120 1 1  0 0 0
H9
10 0 59517   5742.000000  0    2306147.059   3498723.696  -5475529.456
10 0 59517   5862.000000  0    2084109.094   2754849.853  -5967522.042
10 0 59517   5982.000000  0    1812530.496   1967520.952  -6355288.308
10 0 59517   6102.000000  0    1495511.126   1151248.197  -6632139.346
10 0 59517   6222.000000  0    1138183.409    320938.534  -6793307.659
10 0 59517   6342.000000  0     746629.028   -508373.485  -6836021.316
10 0 59517   6462.000000  0     327776.134  -1321792.634  -6759545.400
10 0 59517   6582.000000  0    -110720.170  -2104822.951  -6565191.910
10 0 59517   6702.000000  0    -560613.414  -2843618.916  -6256301.206
10 0 59517   6822.000000  0   -1013216.978  -3525227.345  -5838191.554
10 0 59517   6942.000000  0   -1459566.854  -4137812.799  -5318076.364
10 0 59517   7062.000000  0   -1890594.862  -4670865.390  -4704951.965
10 0 59517   7182.000000  0   -2297309.958  -5115387.676  -4009453.541
10 0 59517   7302.000000  0   -2670983.863  -5464054.995  -3243680.186
10 0 59517   7422.000000  0   -3003336.542  -5711345.886  -2420991.918
10 0 59517   7542.000000  0   -3286718.046  -5853640.089  -1555781.145
10 0 59517   7662.000000  0   -3514282.533  -5889280.883   -663220.995
10 0 59517   7782.000000  0   -3680148.883  -5818598.276    241005.206
10 0 59517   7902.000000  0   -3779543.471  -5643892.026   1140986.486
10 0 59517   8022.000000  0   -3808921.813  -5369374.759   2020873.215
10 0 59517   8142.000000  0   -3766065.126  -5001075.460   2865165.695
10 0 59517   8262.000000  0   -3650149.607  -4546707.029   3658994.911
10 0 59517   8382.000000  0   -3461786.942  -4015501.575   4388390.593
10 0 59517   8502.000000  0   -3203034.909  -3418016.692   5040530.630
10 0 59517   8622.000000  0   -2877378.440  -2765918.617   5603966.092
10 0 59517   8742.000000  0   -2489681.612  -2071748.642   6068819.192
10 0 59517   8862.000000  0   -2046112.434  -1348677.961   6426952.192
10 0 59517   8982.000000  0   -1554041.194   -610253.823   6672106.001
10 0 59517   9102.000000  0   -1021913.935    129857.372   6800001.693
10 0 59517   9222.000000  0    -459107.227    858121.553   6808409.064
10 0 59517   9342.000000  0     124236.821   1561383.819   6697183.933
10 0 59517   9462.000000  0     717393.142   2227105.981   6468270.619
10 0 59517   9582.000000  0    1309250.545   2843590.000   6125669.276
10 0 59517   9702.000000  0    1888518.852   3400183.994   5675370.420
10 0 59517   9822.000000  0    2443943.853   3887469.621   5125256.591
10 0 59517   9942.000000  0    2964527.734   4297426.678   4484970.346
10 0 59517  10062.000000  0    3439748.783   4623569.835   3765749.070
10 0 59517  10182.000000  0    3859775.691   4861056.764   2980232.880
10 0 59517  10302.000000  0    4215676.965   5006767.091   2142243.011
10 0 59517  10422.000000  0    4499611.523   5059342.611   1266532.999
10 0 59517  10542.000000  0    4705001.066   5019194.808    368525.810
10 0 59517  10662.000000  0    4826680.144   4888476.457   -535967.597
10 0 59517  10782.000000  0    4861015.466   4671014.581  -1431035.730
10 0 59517  10902.000000  0    4805995.765   4372211.018  -2300953.652
10 0 59517  11022.000000  0    4661289.099   3998912.859  -3130465.810
10 0 59517  11142.000000  0    4428265.662   3559255.329  -3905057.918
10 0 59517  11262.000000  0    4109985.412   3062481.943  -4611211.520
10 0 59517  11382.000000  0    3711153.376   2518746.553  -5236636.493
10 0 59517  11502.000000  0    3238043.907   1938902.581  -5770478.513
10 0 59517  11622.000000  0    2698394.883   1334284.364  -6203498.152
10 0 59517  11742.000000  0    2101275.309    716485.481  -6528219.154
10 0 59517  11862.000000  0    1456930.359     97139.011  -6739045.226
10 0 59517  11982.000000  0     776606.819   -512297.126  -6832347.845
10 0 59517  12102.000000  0      72358.030  -1100748.077  -6806522.046
10 0 59517  12222.000000  0    -643164.754  -1657717.663  -6662009.268
10 0 59517  12342.000000  0   -1356933.450  -2173470.305  -6401291.546
10 0 59517  12462.000000  0   -2055775.114  -2639198.626  -6028854.014
10 0 59517  12582.000000  0   -2726609.532  -3047172.411  -5551115.510
10 0 59517  12702.000000  0   -3356690.697  -3390868.108  -4976330.001
10 0 59517  12822.000000  0   -3933849.797  -3665077.330  -4314455.758
10 0 59517  12942.000000  0   -4446732.728  -3865989.995  -3576992.991
10 0 59517  13062.000000  0   -4885028.270  -3991251.322  -2776792.997
10 0 59517  13182.000000  0   -5239681.952  -4039990.890  -1927839.538
10 0 59517  13302.000000  0   -5503089.583  -4012821.849  -1045005.969
10 0 59517  13422.000000  0   -5669265.686  -3911810.237   -143792.790
10 0 59517  13542.000000  0   -5733982.293  -3740414.654    759949.651
10 0 59517  13662.000000  0   -5694873.846  -3503397.613   1650308.656
10 0 59517  13782.000000  0   -5551503.371  -3206708.853   2511599.558
10 0 59517  13902.000000  0   -5305389.258  -2857344.784   3328650.381
10 0 59517  14022.000000  0   -4959992.880  -2463188.872   4087076.335
10 0 59517  14142.000000  0   -4520666.218  -2032834.981   4773538.395
10 0 59517  14262.000000  0   -3994561.721  -1575399.830   5375978.174
10 0 59517  14382.000000  0   -3390509.194  -1100330.300   5883827.393
10 0 59517  14502.000000  0   -2718860.962   -617208.010   6288190.814
10 0 59517  14622.000000  0   -1991306.909   -135554.890   6581997.305
10 0 59517  14742.000000  0   -1220665.174    335354.028   6760115.880
10 0 59517  14862.000000  0    -420654.277    786667.240   6819439.373
10 0 59517  14982.000000  0     394351.279   1210122.167   6758935.132
10 0 59517  15102.000000  0    1209578.525   1598196.124   6579661.953
10 0 59517  15222.000000  0    2010123.169   1944240.299   6284752.226
10 0 59517  15342.000000  0    2781221.205   2242593.680   5879360.457
10 0 59517  15462.000000  0    3508522.432   2488676.736   5370579.400
10 0 59517  15582.000000  0    4178360.970   2679062.860   4767321.542
10 0 59517  15702.000000  0    4778015.796   2811526.669   4080168.667
10 0 59517  15822.000000  0    5295960.045   2885068.127   3321192.155
10 0 59517  15942.000000  0    5722092.406   2899909.935   2503740.021
10 0 59517  16062.000000  0    6047939.852   2857469.219   1642201.270
10 0 59517  16182.000000  0    6266833.881   2760305.502    751748.614
10 0 59517  16302.000000  0    6374051.267   2612043.555   -151936.616
10 0 59517  16422.000000  0    6366914.986   2417273.270  -1052950.141
10 0 59517  16542.000000  0    6244852.795   2181429.564  -1935452.253
10 0 59517  16662.000000  0    6009416.802   1910658.049  -2783952.763
10 0 59517  16782.000000  0    5664259.132   1611666.255  -3583589.440
10 0 59517  16902.000000  0    5215065.958   1291565.457  -4320390.886
10 0 59517  17022.000000  0    4669451.151    957707.445  -4981519.312
10 0 59517  17142.000000  0    4036815.091    617521.708  -5555487.686
10 0 59517  17262.000000  0    3328173.141    278355.665  -6032350.539
10 0 59517  17382.000000  0    2555956.087    -52678.452  -6403866.129
10 0 59517  17502.000000  0    1733787.668   -368847.564  -6663626.936
10 0 59517  17622.000000  0     876245.013   -663929.877  -6807159.820
10 0 59517  17742.000000  0      -1397.626   -932333.287  -6831995.685
10 0 59517  17862.000000  0    -883435.633  -1169197.543  -6737705.760
10 0 59517  17982.000000  0   -1754007.723  -1370479.789  -6525908.798
10 0 59517  18102.000000  0   -2597375.122  -1533022.321  -6200246.384
10 0 59517  18222.000000  0   -3398199.464  -1654601.208  -5766326.101
10 0 59517  18342.000000  0   -4141818.012  -1733956.190  -5231636.583
10 0 59517  18462.000000  0   -4814514.049  -1770800.736  -4605430.090
10 0 59517  18582.000000  0   -5403774.186  -1765811.434  -3898573.415
10 0 59517  18702.000000  0   -5898529.293  -1720597.255  -3123369.552
10 0 59517  18822.000000  0   -6289373.321  -1637648.681  -2293350.144
10 0 59517  18942.000000  0   -6568753.749  -1520267.113  -1423042.439
10 0 59517  19062.000000  0   -6731129.137  -1372476.387   -527714.452
10 0 59517  19182.000000  0   -6773089.033  -1198917.824    376897.380
10 0 59517  19302.000000  0   -6693431.990  -1004730.936   1274872.075
10 0 59517  19422.000000  0   -6493198.956   -795423.919   2150393.244
10 0 59517  19542.000000  0   -6175661.355   -576736.674   2988036.799
10 0 59517  19662.000000  0   -5746264.215   -354499.622   3773051.101
10 0 59517  19782.000000  0   -5212524.794   -134492.149   4491623.221
10 0 59517  19902.000000  0   -4583890.416     77694.802   5131124.204
10 0 59517  20022.000000  0   -3871561.586    276790.024   5680329.706
10 0 59517  20142.000000  0   -3088283.380    457963.620   6129614.532
10 0 59517  20262.000000  0   -2248108.708    616935.650   6471116.316
10 0 59517  20382.000000  0   -1366140.286    750070.173   6698867.618
10 0 59517  20502.000000  0    -458254.902    854453.737   6808893.881
10 0 59517  20622.000000  0     459182.993    927955.934   6799277.384
10 0 59517  20742.000000  0    1369615.253    969271.562   6670188.248
10 0 59517  20862.000000  0    2256587.768    977944.115   6423881.703
10 0 59517  20982.000000  0    3104047.071    954369.514   6064661.477
10 0 59517  21102.000000  0    3896632.667    899780.266   5598809.611
10 0 59517  21222.000000  0    4619958.353    816210.605   5034481.440
10 0 59517  21342.000000  0    5260878.404    706442.380   4381570.028
10 0 59517  21462.000000  0    5807735.958    573933.426   3651538.339
10 0 59517  21582.000000  0    6250585.343    422730.255   2857219.543
10 0 59517  21702.000000  0    6581381.836    257365.964   2012590.288
10 0 59517  21822.000000  0    6794137.458     82745.055   1132522.881
10 0 59517  21942.000000  0    6885036.668    -95980.051    232516.852
10 0 59517  22062.000000  0    6852509.032   -273539.308   -671581.860
10 0 59517  22182.000000  0    6697255.941   -444678.566  -1563869.423
99
